TIANMU-1 20             
1 58661U 23208B   26187.32050824  .00007107  00000+0  22489-3 0  9991
2 58661  97.4459 304.3785 0005715 249.1633 110.8997 15.33068498140357
TIANMU-1 21             
1 58662U 23208C   26187.27974382  .00009055  00000+0  26523-3 0  9997
2 58662  97.4520 307.1015 0005932 239.8300 120.2356 15.35436334140491
TIANMU-1 22             
1 58663U 23208D   26187.28590962  .00006841  00000+0  22861-3 0  9998
2 58663  97.4514 303.6081 0002219 266.7003  93.3984 15.31339008140250
TIANMU-1 15             
1 58700U 24004A   26187.30003865  .00004988  00000+0  19188-3 0  9997
2 58700  97.4675  13.4906 0005669 267.9818  92.0771 15.26850354138692
TIANMU-1 16             
1 58701U 24004B   26187.29010509  .00004684  00000+0  17982-3 0  9992
2 58701  97.4622  12.7021 0004336 288.9822  71.0946 15.26952371138696
TIANMU-1 17             
1 58702U 24004C   26187.27557619  .00004790  00000+0  18385-3 0  9995
2 58702  97.4650  13.1794 0003897 296.8637  63.2203 15.26950177138683
TIANMU-1 18             
1 58703U 24004D   26187.31670757  .00005027  00000+0  19329-3 0  9993
2 58703  97.4666  13.4824 0003359 268.9600  91.1254 15.26868498138692
INSAT-3DS               
1 58990U 24033A   26187.02068500 -.00000142  00000+0  00000+0 0  9994
2 58990   0.0788  95.9943 0001184  16.9301 260.5933  1.00272893 47257
METEOR-M2 4             
1 59051U 24039A   26187.31645304  .00000013  00000+0  25483-4 0  9997
2 59051  98.7020 146.3749 0008138 110.8556 249.3494 14.22431482121985
GOES 19                 
1 60133U 24119A   26187.13300991 -.00000234  00000+0  00000+0 0  9998
2 60133   0.0340 180.2301 0000419 350.5672  86.0110  1.00272666  7158
MTG-S1                  
1 64723U 25143A   26187.14694087  .00000006  00000+0  00000+0 0  9994
2 64723   0.5896 342.9064 0003185 262.0959  91.5794  1.00272464  3600
METOP-SGA1              
1 65159U 25172A   26187.16693887  .00000036  00000+0  37240-4 0  9993
2 65159  98.6633 246.4932 0007568 359.2458   0.8706 14.19818208 46480
FENGYUN 3H              
1 65815U 25219A   26186.85551700  .00000073  00000+0  54868-4 0  9992
2 65815  98.6769 127.2619 0001345  65.0762 295.0554 14.19923795 40036
