OBJECT_NAME,OBJECT_ID,EPOCH,MEAN_MOTION,ECCENTRICITY,INCLINATION,RA_OF_ASC_NODE,ARG_OF_PERICENTER,MEAN_ANOMALY,EPHEMERIS_TYPE,CLASSIFICATION_TYPE,NORAD_CAT_ID,ELEMENT_SET_NO,REV_AT_EPOCH,BSTAR,MEAN_MOTION_DOT,MEAN_MOTION_DDOT
TIANMU-1 20,2023-208B,2026-07-06T07:41:31.911936,15.33068498,.00057152,97.4459,304.3785,249.1633,110.8997,0,U,58661,999,14035,.22489188E-3,.7107E-4,0
TIANMU-1 21,2023-208C,2026-07-06T06:42:49.866048,15.35436334,.00059329,97.4520,307.1015,239.8300,120.2356,0,U,58662,999,14049,.26522788E-3,.9055E-4,0
TIANMU-1 22,2023-208D,2026-07-06T06:51:42.591168,15.31339008,.00022193,97.4514,303.6081,266.7003,93.3984,0,U,58663,999,14025,.2286069E-3,.6841E-4,0
TIANMU-1 15,2024-004A,2026-07-06T07:12:03.339360,15.26850354,.00056696,97.4675,13.4906,267.9818,92.0771,0,U,58700,999,13869,.1918771E-3,.4988E-4,0
TIANMU-1 16,2024-004B,2026-07-06T06:57:45.079776,15.26952371,.00043369,97.4622,12.7021,288.9822,71.0946,0,U,58701,999,13869,.17981761E-3,.4684E-4,0
TIANMU-1 17,2024-004C,2026-07-06T06:36:49.782816,15.26950177,.00038979,97.4650,13.1794,296.8637,63.2203,0,U,58702,999,13868,.18384884E-3,.479E-4,0
TIANMU-1 18,2024-004D,2026-07-06T07:36:03.534048,15.26868498,.00033594,97.4666,13.4824,268.9600,91.1254,0,U,58703,999,13869,.19328973E-3,.5027E-4,0
INSAT-3DS,2024-033A,2026-07-06T00:29:47.184000,1.00272893,.00011845,0.0788,95.9943,16.9301,260.5933,0,U,58990,999,4725,0,-.142E-5,0
METEOR-M2 4,2024-039A,2026-07-06T07:35:41.542656,14.22431482,.00081387,98.7020,146.3749,110.8556,249.3494,0,U,59051,999,12198,.25483162E-4,.13E-6,0
GOES 19,2024-119A,2026-07-06T03:11:32.056224,1.00272666,.00004199,0.0340,180.2301,350.5672,86.0110,0,U,60133,999,715,0,-.234E-5,0
MTG-S1,2025-143A,2026-07-06T03:31:35.691168,1.00272464,.00031858,0.5896,342.9064,262.0959,91.5794,0,U,64723,999,360,0,.6E-7,0
METOP-SGA1,2025-172A,2026-07-06T04:00:23.518368,14.19818208,.00075687,98.6633,246.4932,359.2458,0.8706,0,U,65159,999,4648,.37239951E-4,.36E-6,0
FENGYUN 3H,2025-219A,2026-07-05T20:31:56.668800,14.19923795,.00013455,98.6769,127.2619,65.0762,295.0554,0,U,65815,999,4003,.54868271E-4,.73E-6,0
